OBJECT_NAME,OBJECT_ID,EPOCH,MEAN_MOTION,ECCENTRICITY,INCLINATION,RA_OF_ASC_NODE,ARG_OF_PERICENTER,MEAN_ANOMALY,EPHEMERIS_TYPE,CLASSIFICATION_TYPE,NORAD_CAT_ID,ELEMENT_SET_NO,REV_AT_EPOCH,BSTAR,MEAN_MOTION_DOT,MEAN_MOTION_DDOT,RMS,DATA_SOURCE
STARLINK-11441 [DTC],2024-249E,2025-10-07T18:43:41.999981,15.70824754,0.0001535,43.0003,9.0647,264.2536,147.8888,0,C,62413,280,1,-8.3786e-05,-0.00010776,0,0.548,SpaceX-E
STARLINK-11445 [DTC],2024-249F,2025-10-07T18:38:42.000000,15.7082676,0.0001627,43.0004,9.2351,272.5276,59.83,0,C,62414,280,1,-8.1246e-05,-0.00010451,0,0.481,SpaceX-E
STARLINK-11355 [DTC],2024-249G,2025-10-07T18:37:42.000038,15.70836884,0.0001594,43.0003,9.0936,264.4106,118.9789,0,C,62415,280,1,-0.00014931,-0.00019207,0,0.46,SpaceX-E
STARLINK-11446 [DTC],2024-249H,2025-10-07T18:39:41.999962,15.70833167,0.0001576,43.0002,8.9308,270.6128,185.9197,0,C,62416,280,1,-0.00013873,-0.00017844,0,0.435,SpaceX-E
STARLINK-11428 [DTC],2024-249J,2025-10-07T18:35:42.000029,15.70829616,0.0001652,43.0007,9.5531,262.6653,297.6479,0,C,62417,280,1,-0.00011191,-0.00014394,0,0.445,SpaceX-E
STARLINK-11447 [DTC],2024-249K,2025-10-07T18:39:41.999962,15.70832077,0.0001526,43.0003,9.0041,263.0851,163.3883,0,C,62418,280,1,-0.00012322,-0.0001585,0,0.51,SpaceX-E
STARLINK-11439 [DTC],2024-249L,2025-10-07T18:43:41.999981,15.70836627,0.0001606,43.0004,9.1375,261.7385,120.3376,0,C,62419,280,1,-0.00015283,-0.00019659,0,0.455,SpaceX-E
STARLINK-11434 [DTC],2024-249M,2025-10-07T18:38:42.000000,15.70835574,0.0001546,43.0003,9.6062,266.6421,275.4055,0,C,62420,280,1,-0.00013751,-0.0001769,0,0.495,SpaceX-E
STARLINK-11461 [DTC],2024-249N,2025-10-07T18:48:41.999962,15.7082626,0.0001719,43.0005,9.414,271.6322,9.865,0,C,62421,280,1,-7.1166e-05,-9.1545e-05,0,0.438,SpaceX-E
STARLINK-32692,2024-249P,2025-10-07T19:22:42.000038,15.27581617,0.0001568,43.0028,105.4332,258.5105,333.5099,0,C,62422,280,1,-0.00030452,-8.4062e-05,0,0.366,SpaceX-E
STARLINK-32680,2024-249Q,2025-10-07T19:23:42.000000,15.27582308,0.0001772,43.002,97.6306,265.0582,340.3944,0,C,62423,280,1,-0.00027021,-7.4595e-05,0,0.439,SpaceX-E
STARLINK-32638,2024-249R,2025-10-07T19:27:42.000019,15.27584844,0.0001494,43.0028,109.0791,265.9749,269.9695,0,C,62424,280,1,-0.0003112,-8.5914e-05,0,0.431,SpaceX-E
STARLINK-32283,2024-249S,2025-10-07T19:22:42.000038,15.27568916,0.0001566,43.0033,93.9065,265.7224,86.4287,0,C,62425,280,1,0.00051461,0.0001421,0,0.283,SpaceX-E
STARLINK-32676,2024-249T,2025-10-07T19:27:42.000019,15.27569867,0.0001751,43.0004,97.9376,259.9896,226.4256,0,C,62426,280,1,-0.00055609,-0.00015342,0,0.645,SpaceX-E
STARLINK-32659,2024-249U,2025-10-07T19:19:41.999981,15.27568748,0.0001597,43.0006,97.7841,273.5144,260.0484,0,C,62427,280,1,7.2273e-05,1.9949e-05,0,0.37,SpaceX-E
STARLINK-32614,2024-249V,2025-10-07T19:26:41.999971,15.27572779,0.0001422,43.0028,105.3788,268.7043,359.8162,0,C,62428,280,1,4.7518e-05,1.3118e-05,0,0.367,SpaceX-E
STARLINK-32418,2024-249W,2025-10-07T19:21:41.999990,15.27569751,0.0001336,43.0034,97.4178,266.892,62.8786,0,C,62429,280,1,0.00040363,0.00011145,0,0.298,SpaceX-E
STARLINK-32702,2024-251A,2025-10-07T19:28:41.999981,15.30133812,0.0001186,53.1575,322.5536,75.0196,238.2802,0,C,62432,280,1,0.0020667,0.00061327,0,0.454,SpaceX-E
STARLINK-32712,2024-251B,2025-10-07T19:26:41.999971,15.30208311,0.0001435,53.1577,325.5431,84.4123,147.9793,0,C,62433,280,1,-0.00063095,-0.00018719,0,0.348,SpaceX-E
STARLINK-32674,2024-251C,2025-10-07T19:21:41.999990,15.30199652,0.0001402,53.1596,325.1483,87.9254,334.7103,0,C,62434,280,1,-0.00015399,-4.5695e-05,0,0.286,SpaceX-E
STARLINK-32711,2024-251D,2025-10-07T19:21:41.999990,15.30199514,0.0001268,53.1574,325.5256,91.7185,138.9796,0,C,62435,280,1,-0.00022573,-6.6978e-05,0,0.328,SpaceX-E
STARLINK-32697,2024-251E,2025-10-07T19:29:42.000029,15.30162433,0.0001195,53.1579,325.3627,105.1224,225.9314,0,C,62436,280,1,0.0012209,0.00036233,0,0.341,SpaceX-E
STARLINK-32693,2024-251F,2025-10-07T19:24:41.999962,15.30205871,0.000138,53.16,322.7212,90.8946,90.9084,0,C,62437,280,1,-0.00047428,-0.00014072,0,0.406,SpaceX-E
STARLINK-32721,2024-251G,2025-10-07T19:25:42.000010,15.30206735,0.0001641,53.1583,325.2904,85.54,270.9833,0,C,62438,280,1,-0.00053817,-0.00015967,0,0.269,SpaceX-E
STARLINK-32709,2024-251H,2025-10-07T19:26:41.999971,15.30196561,0.0001342,53.1601,325.7271,81.6508,57.6724,0,C,62439,280,1,-0.00013227,-3.9248e-05,0,0.373,SpaceX-E
STARLINK-32689,2024-251J,2025-10-07T19:29:42.000029,15.30168179,0.0001303,53.1599,325.071,90.5071,26.0961,0,C,62440,280,1,8.7749e-05,2.6019e-05,0,0.343,SpaceX-E
STARLINK-32724,2024-251K,2025-10-07T19:26:41.999971,15.30203007,0.0001202,53.1581,325.3139,86.6474,262.0725,0,C,62441,280,1,-0.00032205,-9.556e-05,0,0.398,SpaceX-E
STARLINK-32291,2024-251L,2025-10-07T19:30:41.999990,15.30166532,0.0001287,53.1577,325.3899,74.6617,242.8837,0,C,62442,280,1,0.00046116,0.00013678,0,0.348,SpaceX-E
STARLINK-32736,2024-251M,2025-10-07T19:23:42.000000,15.30207851,0.0001296,53.1573,325.4977,86.4109,163.5789,0,C,62443,280,1,-0.0005897,-0.00017496,0,0.354,SpaceX-E
