STARLINK-11441 [DTC]    
1 62413C 24249E   25280.78034722 -.00010776  00000+0 -83786-4 0  2808
2 62413  43.0003   9.0647 0001535 264.2536 147.8888 15.70824754    14
STARLINK-11445 [DTC]    
1 62414C 24249F   25280.77687500 -.00010451  00000+0 -81246-4 0  2805
2 62414  43.0004   9.2351 0001627 272.5276  59.8300 15.70826760    15
STARLINK-11355 [DTC]    
1 62415C 24249G   25280.77618056 -.00019207  00000+0 -14931-3 0  2800
2 62415  43.0003   9.0936 0001594 264.4106 118.9789 15.70836884    13
STARLINK-11446 [DTC]    
1 62416C 24249H   25280.77756944 -.00017844  00000+0 -13873-3 0  2809
2 62416  43.0002   8.9308 0001576 270.6128 185.9197 15.70833167    15
STARLINK-11428 [DTC]    
1 62417C 24249J   25280.77479167 -.00014394  00000+0 -11191-3 0  2807
2 62417  43.0007   9.5531 0001652 262.6653 297.6479 15.70829616    13
STARLINK-11447 [DTC]    
1 62418C 24249K   25280.77756944 -.00015850  00000+0 -12322-3 0  2804
2 62418  43.0003   9.0041 0001526 263.0851 163.3883 15.70832077    19
STARLINK-11439 [DTC]    
1 62419C 24249L   25280.78034722 -.00019659  00000+0 -15283-3 0  2809
2 62419  43.0004   9.1375 0001606 261.7385 120.3376 15.70836627    13
STARLINK-11434 [DTC]    
1 62420C 24249M   25280.77687500 -.00017690  00000+0 -13751-3 0  2809
2 62420  43.0003   9.6062 0001546 266.6421 275.4055 15.70835574    16
STARLINK-11461 [DTC]    
1 62421C 24249N   25280.78381944 -.00009155  00000+0 -71166-4 0  2806
2 62421  43.0005   9.4140 0001719 271.6322   9.8650 15.70826260    14
STARLINK-32692          
1 62422C 24249P   25280.80743056 -.00008406  00000+0 -30452-3 0  2806
2 62422  43.0028 105.4332 0001568 258.5105 333.5099 15.27581617    15
STARLINK-32680          
1 62423C 24249Q   25280.80812500 -.00007460  00000+0 -27021-3 0  2805
2 62423  43.0020  97.6306 0001772 265.0582 340.3944 15.27582308    13
STARLINK-32638          
1 62424C 24249R   25280.81090278 -.00008591  00000+0 -31120-3 0  2808
2 62424  43.0028 109.0791 0001494 265.9749 269.9695 15.27584844    19
STARLINK-32283          
1 62425C 24249S   25280.80743056  .00014210  00000+0  51461-3 0  2800
2 62425  43.0033  93.9065 0001566 265.7224  86.4287 15.27568916    18
STARLINK-32676          
1 62426C 24249T   25280.81090278 -.00015342  00000+0 -55609-3 0  2800
2 62426  43.0004  97.9376 0001751 259.9896 226.4256 15.27569867    10
STARLINK-32659          
1 62427C 24249U   25280.80534722  .00001995  00000+0  72273-4 0  2801
2 62427  43.0006  97.7841 0001597 273.5144 260.0484 15.27568748    18
STARLINK-32614          
1 62428C 24249V   25280.81020833  .00001312  00000+0  47518-4 0  2803
2 62428  43.0028 105.3788 0001422 268.7043 359.8162 15.27572779    19
STARLINK-32418          
1 62429C 24249W   25280.80673611  .00011145  00000+0  40363-3 0  2806
2 62429  43.0034  97.4178 0001336 266.8920  62.8786 15.27569751    17
STARLINK-32702          
1 62432C 24251A   25280.81159722  .00061327  00000+0  20667-2 0  2807
2 62432  53.1575 322.5536 0001186  75.0196 238.2802 15.30133812    18
STARLINK-32712          
1 62433C 24251B   25280.81020833 -.00018719  00000+0 -63095-3 0  2800
2 62433  53.1577 325.5431 0001435  84.4123 147.9793 15.30208311    11
STARLINK-32674          
1 62434C 24251C   25280.80673611 -.00004570  00000+0 -15399-3 0  2802
2 62434  53.1596 325.1483 0001402  87.9254 334.7103 15.30199652    11
STARLINK-32711          
1 62435C 24251D   25280.80673611 -.00006698  00000+0 -22573-3 0  2808
2 62435  53.1574 325.5256 0001268  91.7185 138.9796 15.30199514    15
STARLINK-32697          
1 62436C 24251E   25280.81229167  .00036233  00000+0  12209-2 0  2803
2 62436  53.1579 325.3627 0001195 105.1224 225.9314 15.30162433    17
STARLINK-32693          
1 62437C 24251F   25280.80881944 -.00014072  00000+0 -47428-3 0  2801
2 62437  53.1600 322.7212 0001380  90.8946  90.9084 15.30205871    19
STARLINK-32721          
1 62438C 24251G   25280.80951389 -.00015967  00000+0 -53817-3 0  2806
2 62438  53.1583 325.2904 0001641  85.5400 270.9833 15.30206735    14
STARLINK-32709          
1 62439C 24251H   25280.81020833 -.00003925  00000+0 -13227-3 0  2801
2 62439  53.1601 325.7271 0001342  81.6508  57.6724 15.30196561    16
STARLINK-32689          
1 62440C 24251J   25280.81229167  .00002602  00000+0  87749-4 0  2804
2 62440  53.1599 325.0710 0001303  90.5071  26.0961 15.30168179    13
STARLINK-32724          
1 62441C 24251K   25280.81020833 -.00009556  00000+0 -32205-3 0  2807
2 62441  53.1581 325.3139 0001202  86.6474 262.0725 15.30203007    14
STARLINK-32291          
1 62442C 24251L   25280.81298611  .00013678  00000+0  46116-3 0  2803
2 62442  53.1577 325.3899 0001287  74.6617 242.8837 15.30166532    13
STARLINK-32736          
1 62443C 24251M   25280.80812500 -.00017496  00000+0 -58970-3 0  2807
2 62443  53.1573 325.4977 0001296  86.4109 163.5789 15.30207851    10
